CCSDS_OMM_VERS = 2.0
CREATION_DATE  = 
ORIGINATOR     = 

OBJECT_NAME    = SL-16 R/B
OBJECT_ID      = 1993-016B
CENTER_NAME    = EARTH
REF_FRAME      = TEME
TIME_SYSTEM    = UTC
MEAN_ELEMENT_THEORY = SGP/SGP4

EPOCH          = 2025-12-03T15:48:01.462464
MEAN_MOTION    = 14.15288617
ECCENTRICITY   = .00078267
INCLINATION    = 71.0091
RA_OF_ASC_NODE = 56.8765
ARG_OF_PERICENTER = 114.9267
MEAN_ANOMALY   = 245.2670

EPHEMERIS_TYPE = 0
CLASSIFICATION_TYPE = U
NORAD_CAT_ID   = 22566
ELEMENT_SET_NO = 999
REV_AT_EPOCH   = 68858
BSTAR          = -.65580761E-4
MEAN_MOTION_DOT = -.175E-5
MEAN_MOTION_DDOT = 0

CCSDS_OMM_VERS = 2.0
CREATION_DATE  = 
ORIGINATOR     = 

OBJECT_NAME    = COSMOS 2242
OBJECT_ID      = 1993-024A
CENTER_NAME    = EARTH
REF_FRAME      = TEME
TIME_SYSTEM    = UTC
MEAN_ELEMENT_THEORY = SGP/SGP4

EPOCH          = 2025-12-03T12:57:03.828960
MEAN_MOTION    = 14.96043927
ECCENTRICITY   = .00147421
INCLINATION    = 82.5193
RA_OF_ASC_NODE = 358.6389
ARG_OF_PERICENTER = 268.4084
MEAN_ANOMALY   = 91.5449

EPHEMERIS_TYPE = 0
CLASSIFICATION_TYPE = U
NORAD_CAT_ID   = 22626
ELEMENT_SET_NO = 999
REV_AT_EPOCH   = 76601
BSTAR          = .30234553E-3
MEAN_MOTION_DOT = .3426E-4
MEAN_MOTION_DDOT = 0

CCSDS_OMM_VERS = 2.0
CREATION_DATE  = 
ORIGINATOR     = 

OBJECT_NAME    = SL-16 R/B
OBJECT_ID      = 1993-059B
CENTER_NAME    = EARTH
REF_FRAME      = TEME
TIME_SYSTEM    = UTC
MEAN_ELEMENT_THEORY = SGP/SGP4

EPOCH          = 2025-12-03T21:49:29.747712
MEAN_MOTION    = 14.17210491
ECCENTRICITY   = .00174376
INCLINATION    = 70.9895
RA_OF_ASC_NODE = 213.1067
ARG_OF_PERICENTER = 348.6167
MEAN_ANOMALY   = 11.4559

EPHEMERIS_TYPE = 0
CLASSIFICATION_TYPE = U
NORAD_CAT_ID   = 22803
ELEMENT_SET_NO = 999
REV_AT_EPOCH   = 66596
BSTAR          = .1937532E-3
MEAN_MOTION_DOT = .344E-5
MEAN_MOTION_DDOT = 0

CCSDS_OMM_VERS = 2.0
CREATION_DATE  = 
ORIGINATOR     = 

OBJECT_NAME    = ARIANE 40 R/B
OBJECT_ID      = 1993-061H
CENTER_NAME    = EARTH
REF_FRAME      = TEME
TIME_SYSTEM    = UTC
MEAN_ELEMENT_THEORY = SGP/SGP4

EPOCH          = 2025-12-03T19:39:40.596768
MEAN_MOTION    = 14.32791696
ECCENTRICITY   = .00103711
INCLINATION    = 98.5089
RA_OF_ASC_NODE = 43.5111
ARG_OF_PERICENTER = 202.8780
MEAN_ANOMALY   = 157.1944

EPHEMERIS_TYPE = 0
CLASSIFICATION_TYPE = U
NORAD_CAT_ID   = 22830
ELEMENT_SET_NO = 999
REV_AT_EPOCH   = 68037
BSTAR          = .17170137E-3
MEAN_MOTION_DOT = .425E-5
MEAN_MOTION_DDOT = 0

CCSDS_OMM_VERS = 2.0
CREATION_DATE  = 
ORIGINATOR     = 

OBJECT_NAME    = COSMOS 2278
OBJECT_ID      = 1994-023A
CENTER_NAME    = EARTH
REF_FRAME      = TEME
TIME_SYSTEM    = UTC
MEAN_ELEMENT_THEORY = SGP/SGP4

EPOCH          = 2025-12-03T13:17:29.869152
MEAN_MOTION    = 14.14351002
ECCENTRICITY   = .00088368
INCLINATION    = 71.0552
RA_OF_ASC_NODE = 16.2293
ARG_OF_PERICENTER = 193.5191
MEAN_ANOMALY   = 166.5697

EPHEMERIS_TYPE = 0
CLASSIFICATION_TYPE = U
NORAD_CAT_ID   = 23087
ELEMENT_SET_NO = 999
REV_AT_EPOCH   = 63121
BSTAR          = .24053508E-4
MEAN_MOTION_DOT = -.1E-7
MEAN_MOTION_DDOT = 0

CCSDS_OMM_VERS = 2.0
CREATION_DATE  = 
ORIGINATOR     = 

OBJECT_NAME    = SL-16 R/B
OBJECT_ID      = 1994-023B
CENTER_NAME    = EARTH
REF_FRAME      = TEME
TIME_SYSTEM    = UTC
MEAN_ELEMENT_THEORY = SGP/SGP4

EPOCH          = 2025-12-03T22:14:49.422624
MEAN_MOTION    = 14.14998435
ECCENTRICITY   = .00010641
INCLINATION    = 71.0002
RA_OF_ASC_NODE = 271.9922
ARG_OF_PERICENTER = 70.1727
MEAN_ANOMALY   = 289.9511

EPHEMERIS_TYPE = 0
CLASSIFICATION_TYPE = U
NORAD_CAT_ID   = 23088
ELEMENT_SET_NO = 999
REV_AT_EPOCH   = 63254
BSTAR          = .2292972E-3
MEAN_MOTION_DOT = .396E-5
MEAN_MOTION_DDOT = 0

CCSDS_OMM_VERS = 2.0
CREATION_DATE  = 
ORIGINATOR     = 

OBJECT_NAME    = SL-16 R/B
OBJECT_ID      = 1994-074B
CENTER_NAME    = EARTH
REF_FRAME      = TEME
TIME_SYSTEM    = UTC
MEAN_ELEMENT_THEORY = SGP/SGP4

EPOCH          = 2025-12-03T16:31:34.798944
MEAN_MOTION    = 14.79272850
ECCENTRICITY   = .00068801
INCLINATION    = 97.7212
RA_OF_ASC_NODE = 7.3527
ARG_OF_PERICENTER = 162.2852
MEAN_ANOMALY   = 312.5766

EPHEMERIS_TYPE = 0
CLASSIFICATION_TYPE = U
NORAD_CAT_ID   = 23343
ELEMENT_SET_NO = 999
REV_AT_EPOCH   = 67305
BSTAR          = .11516716E-3
MEAN_MOTION_DOT = .807E-5
MEAN_MOTION_DDOT = 0

CCSDS_OMM_VERS = 2.0
CREATION_DATE  = 
ORIGINATOR     = 

OBJECT_NAME    = SL-16 R/B
OBJECT_ID      = 1994-077B
CENTER_NAME    = EARTH
REF_FRAME      = TEME
TIME_SYSTEM    = UTC
MEAN_ELEMENT_THEORY = SGP/SGP4

EPOCH          = 2025-12-03T21:00:18.976896
MEAN_MOTION    = 14.15545789
ECCENTRICITY   = .00045748
INCLINATION    = 70.9810
RA_OF_ASC_NODE = 194.0622
ARG_OF_PERICENTER = 290.9077
MEAN_ANOMALY   = 69.1556

EPHEMERIS_TYPE = 0
CLASSIFICATION_TYPE = U
NORAD_CAT_ID   = 23405
ELEMENT_SET_NO = 999
REV_AT_EPOCH   = 60267
BSTAR          = .38166413E-4
MEAN_MOTION_DOT = .27E-6
MEAN_MOTION_DDOT = 0

CCSDS_OMM_VERS = 2.0
CREATION_DATE  = 
ORIGINATOR     = 

OBJECT_NAME    = ARIANE 40+ R/B
OBJECT_ID      = 1995-021B
CENTER_NAME    = EARTH
REF_FRAME      = TEME
TIME_SYSTEM    = UTC
MEAN_ELEMENT_THEORY = SGP/SGP4

EPOCH          = 2025-12-03T18:44:08.831328
MEAN_MOTION    = 14.39684124
ECCENTRICITY   = .00077339
INCLINATION    = 98.4664
RA_OF_ASC_NODE = 45.4773
ARG_OF_PERICENTER = 73.3006
MEAN_ANOMALY   = 37.1321

EPHEMERIS_TYPE = 0
CLASSIFICATION_TYPE = U
NORAD_CAT_ID   = 23561
ELEMENT_SET_NO = 999
REV_AT_EPOCH   = 60544
BSTAR          = .18282747E-3
MEAN_MOTION_DOT = .529E-5
MEAN_MOTION_DDOT = 0

CCSDS_OMM_VERS = 2.0
CREATION_DATE  = 
ORIGINATOR     = 

OBJECT_NAME    = SL-16 R/B
OBJECT_ID      = 1995-058B
CENTER_NAME    = EARTH
REF_FRAME      = TEME
TIME_SYSTEM    = UTC
MEAN_ELEMENT_THEORY = SGP/SGP4

EPOCH          = 2025-12-03T21:03:34.671168
MEAN_MOTION    = 14.15478920
ECCENTRICITY   = .00148878
INCLINATION    = 71.0225
RA_OF_ASC_NODE = 21.4111
ARG_OF_PERICENTER = 266.3755
MEAN_ANOMALY   = 93.5666

EPHEMERIS_TYPE = 0
CLASSIFICATION_TYPE = U
NORAD_CAT_ID   = 23705
ELEMENT_SET_NO = 999
REV_AT_EPOCH   = 55429
BSTAR          = .22572736E-3
MEAN_MOTION_DOT = .394E-5
MEAN_MOTION_DDOT = 0

CCSDS_OMM_VERS = 2.0
CREATION_DATE  = 
ORIGINATOR     = 

OBJECT_NAME    = SL-16 R/B
OBJECT_ID      = 1996-051B
CENTER_NAME    = EARTH
REF_FRAME      = TEME
TIME_SYSTEM    = UTC
MEAN_ELEMENT_THEORY = SGP/SGP4

EPOCH          = 2025-12-03T13:33:38.209248
MEAN_MOTION    = 14.12394968
ECCENTRICITY   = .00191917
INCLINATION    = 70.7602
RA_OF_ASC_NODE = 18.7043
ARG_OF_PERICENTER = 272.7349
MEAN_ANOMALY   = 87.1574

EPHEMERIS_TYPE = 0
CLASSIFICATION_TYPE = U
NORAD_CAT_ID   = 24298
ELEMENT_SET_NO = 999
REV_AT_EPOCH   = 50807
BSTAR          = .4043175E-4
MEAN_MOTION_DOT = .25E-6
MEAN_MOTION_DDOT = 0

CCSDS_OMM_VERS = 2.0
CREATION_DATE  = 
ORIGINATOR     = 

OBJECT_NAME    = ORBVIEW 2 (SEASTAR)
OBJECT_ID      = 1997-037A
CENTER_NAME    = EARTH
REF_FRAME      = TEME
TIME_SYSTEM    = UTC
MEAN_ELEMENT_THEORY = SGP/SGP4

EPOCH          = 2025-12-03T22:09:26.288352
MEAN_MOTION    = 14.35407189
ECCENTRICITY   = .00021045
INCLINATION    = 98.8454
RA_OF_ASC_NODE = 134.7759
ARG_OF_PERICENTER = 9.1589
MEAN_ANOMALY   = 350.9634

EPHEMERIS_TYPE = 0
CLASSIFICATION_TYPE = U
NORAD_CAT_ID   = 24883
ELEMENT_SET_NO = 999
REV_AT_EPOCH   = 49473
BSTAR          = .25575812E-3
MEAN_MOTION_DOT = .688E-5
MEAN_MOTION_DDOT = 0

