SL-16 R/B               
1 22566U 93016B   25337.65835026 -.00000175  00000+0 -65581-4 0  9998
2 22566  71.0091  56.8765 0007826 114.9267 245.2670 14.15288617688585
COSMOS 2242             
1 22626U 93024A   25337.53962765  .00003426  00000+0  30235-3 0  9999
2 22626  82.5193 358.6389 0014742 268.4084  91.5449 14.96043927766017
SL-16 R/B               
1 22803U 93059B   25337.90937208  .00000344  00000+0  19375-3 0  9997
2 22803  70.9895 213.1067 0017437 348.6167  11.4559 14.17210491665969
ARIANE 40 R/B           
1 22830U 93061H   25337.81921987  .00000425  00000+0  17170-3 0  9998
2 22830  98.5089  43.5111 0010371 202.8780 157.1944 14.32791696680373
COSMOS 2278             
1 23087U 94023A   25337.55381793 -.00000001  00000+0  24054-4 0  9999
2 23087  71.0552  16.2293 0008836 193.5191 166.5697 14.14351002631213
SL-16 R/B               
1 23088U 94023B   25337.92696091  .00000396  00000+0  22930-3 0  9997
2 23088  71.0002 271.9922 0001064  70.1727 289.9511 14.14998435632543
SL-16 R/B               
1 23343U 94074B   25337.68859721  .00000807  00000+0  11517-3 0  9997
2 23343  97.7212   7.3527 0006880 162.2852 312.5766 14.79272850673053
SL-16 R/B               
1 23405U 94077B   25337.87521964  .00000027  00000+0  38166-4 0  9999
2 23405  70.9810 194.0622 0004574 290.9077  69.1556 14.15545789602671
ARIANE 40+ R/B          
1 23561U 95021B   25337.78065777  .00000529  00000+0  18283-3 0  9991
2 23561  98.4664  45.4773 0007733  73.3006  37.1321 14.39684124605443
SL-16 R/B               
1 23705U 95058B   25337.87748462  .00000394  00000+0  22573-3 0  9997
2 23705  71.0225  21.4111 0014887 266.3755  93.5666 14.15478920554299
SL-16 R/B               
1 24298U 96051B   25337.56502557  .00000025  00000+0  40432-4 0  9994
2 24298  70.7602  18.7043 0019191 272.7349  87.1574 14.12394968508076
ORBVIEW 2 (SEASTAR)     
1 24883U 97037A   25337.92322093  .00000688  00000+0  25576-3 0  9990
2 24883  98.8454 134.7759 0002104   9.1589 350.9634 14.35407189494739
